{
  "type": "FeatureCollection",
  "features": [
    {
      "type": "Feature",
      "geometry": {
        "type": "Polygon",
        "coordinates": [
          [
            [
              594.374755859375,
              214.4383544921875
            ],
            [
              590.34619140625,
              458.0010986328125
            ],
            [
              706.9757690429688,
              458.6462097167969
            ],
            [
              707.3343505859375,
              214.0797576904297
            ],
            [
              594.374755859375,
              214.4383544921875
            ]
          ]
        ]
      },
      "properties": {
        "name": "closed_arm_top",
        "roi_type": "PolygonOfInterest"
      }
    },
    {
      "type": "Feature",
      "geometry": {
        "type": "Polygon",
        "coordinates": [
          [
            [
              589.8490600585938,
              576.5667114257812
            ],
            [
              590.43359375,
              815.6333618164062
            ],
            [
              704.3184204101562,
              816.9822387695312
            ],
            [
              706.7520141601562,
              577.1512451171875
            ],
            [
              589.8490600585938,
              576.5667114257812
            ]
          ]
        ]
      },
      "properties": {
        "name": "closed_arm_bottom",
        "roi_type": "PolygonOfInterest"
      }
    },
    {
      "type": "Feature",
      "geometry": {
        "type": "Polygon",
        "coordinates": [
          [
            [
              709.3414306640625,
              462.0223693847656
            ],
            [
              708.5042724609375,
              575.040283203125
            ],
            [
              976.3984985351562,
              578.388916015625
            ],
            [
              976.3984985351562,
              465.3710632324219
            ],
            [
              709.3414306640625,
              462.0223693847656
            ]
          ]
        ]
      },
      "properties": {
        "name": "open_arm_right",
        "roi_type": "PolygonOfInterest"
      }
    },
    {
      "type": "Feature",
      "geometry": {
        "type": "Polygon",
        "coordinates": [
          [
            [
              334.2230529785156,
              460.05303955078125
            ],
            [
              333.2273254394531,
              570.082763671875
            ],
            [
              590.627197265625,
              573.56787109375
            ],
            [
              590.1293334960938,
              460.05303955078125
            ],
            [
              334.2230529785156,
              460.05303955078125
            ]
          ]
        ]
      },
      "properties": {
        "name": "open_arm_left",
        "roi_type": "PolygonOfInterest"
      }
    },
    {
      "type": "Feature",
      "geometry": {
        "type": "Polygon",
        "coordinates": [
          [
            [
              590.3280029296875,
              460.7413635253906
            ],
            [
              590.3280029296875,
              575.2395629882812
            ],
            [
              707.013916015625,
              576.2118530273438
            ],
            [
              707.2545776367188,
              460.25531005859375
            ],
            [
              590.3280029296875,
              460.7413635253906
            ]
          ]
        ]
      },
      "properties": {
        "name": "centre",
        "roi_type": "PolygonOfInterest"
      }
    }
  ]
}